0 FENGYUN 1C DEB
1 29898U 99025GU  13281.39863825  .00004230  00000-0  33206-2 0  7566
2 29898 098.2391 217.3071 0506515 353.5726 121.4094 13.45149896329605
0 FENGYUN 1C DEB
1 29898U 99025GU  13282.79806684  .00006000  00000-0  46980-2 0  7572
2 29898 098.2388 218.4624 0506385 349.9603 058.2353 13.45166960329791
0 FENGYUN 1C DEB
1 29898U 99025GU  13284.06417975  .00006564  00000-0  51379-2 0  7589
2 29898 098.2387 219.5076 0506250 346.6946 069.5458 13.45182321329967
0 FENGYUN 1C DEB
1 29898U 99025GU  13285.77524372  .00005433  00000-0  42589-2 0  7596
2 29898 098.2388 220.9200 0506052 342.2816 075.6885 13.45201173330197
0 FENGYUN 1C DEB
1 29898U 99025GU  13286.81483825  .00005798  00000-0  45438-2 0  7601
2 29898 098.2391 221.7781 0505938 339.5871 070.1891 13.45212301330334
0 FENGYUN 1C DEB
1 29898U 99025GU  13288.39087429  .00008046  00000-0  62955-2 0  7619
2 29898 098.2397 223.0790 0505684 335.5179 142.6123 13.45234385330542
0 FENGYUN 1C DEB
1 29898U 99025GU  13289.78944817  .00008146  00000-0  63742-2 0  7623
2 29898 098.2401 224.2335 0505540 331.9057 075.7367 13.45250596330731
0 FENGYUN 1C DEB
1 29898U 99025GU  13290.74592514  .00005876  00000-0  45741-2 0  7631
2 29898 098.2353 225.0097 0506180 329.3725 027.9184 13.45260787330868
0 FENGYUN 1C DEB
1 29898U 99025GU  13291.49960094  .00006942  00000-0  54387-2 0  7637
2 29898 098.2407 225.6452 0505279 327.4877 077.9231 13.45274794330966
0 FENGYUN 1C DEB
1 29898U 99025GU  13293.06381025  .00006518  00000-0  51086-2 0  7646
2 29898 098.2408 226.9369 0505124 323.4434 093.4413 13.45297415331176
0 FENGYUN 1C DEB
1 29898U 99025GU  13295.38288013  .00007864  00000-0  61587-2 0  7659
2 29898 098.2407 228.8521 0504849 317.4477 164.9845 13.45327309331482
